#dV2019  9 17  0  0  0.00000000    8640 U+u   IGS14 FIT TUD 
## 2071 172800.00000000    10.00000000 58743 0.0000000000000
+    1   L47  0  0  0  0  0  0  0  0  0  0  0  0  0  0  0  0                          
+          0  0  0  0  0  0  0  0  0  0  0  0  0  0  0  0  0                          
+          0  0  0  0  0  0  0  0  0  0  0  0  0  0  0  0  0                          
+          0  0  0  0  0  0  0  0  0  0  0  0  0  0  0  0  0                          
+          0  0  0  0  0  0  0  0  0  0  0  0  0  0  0  0  0                          
++         0  0  0  0  0  0  0  0  0  0  0  0  0  0  0  0  0                          
++         0  0  0  0  0  0  0  0  0  0  0  0  0  0  0  0  0                          
++         0  0  0  0  0  0  0  0  0  0  0  0  0  0  0  0  0                          
++         0  0  0  0  0  0  0  0  0  0  0  0  0  0  0  0  0                          
++         0  0  0  0  0  0  0  0  0  0  0  0  0  0  0  0  0                          
%c M  cc GPS ccc cccc cccc cccc cccc ccccc ccccc ccccc ccccc                          
%c cc cc ccc ccc cccc cccc cccc cccc ccccc ccccc ccccc ccccc                          
%f  0.0000000  0.000000000  0.00000000000  0.000000000000000                          
%f  0.0000000  0.000000000  0.00000000000  0.000000000000000                          
%i    0    0    0    0      0      0      0      0         0                          
%i    0    0    0    0      0      0      0      0         0                          
/* Created by: RDOD_AR_WGT                                                            
/* Setup     : SWARMA.19.260_RDOD_AR.inp                                              
/* Executed  : 10-May-2021 15:04 UTC, by swarmgen@euclid2.lr.tudelft.nl               
/*                                                                                    
*  2019 09 17 18 20 00.00000000                             
PL47 -3186.3627122  3100.2762661  5154.0870697 999999.999999
VL47-43001.3734218 38800.5516886-49778.5951133 999999.999999
*  2019 09 17 18 20 10.00000000                             
PL47 -3229.1349745  3138.9126528  5103.9837115 999999.999999
VL47-42542.3340930 38471.2997866-50427.0689072 999999.999999
*  2019 09 17 18 20 20.00000000                             
PL47 -3271.4457572  3177.2170275  5053.2350504 999999.999999
VL47-42078.4252239 38136.5333607-51069.1871900 999999.999999
*  2019 09 17 18 20 30.00000000                             
PL47 -3313.2902239  3215.1838928  5001.8474829 999999.999999
VL47-41609.7132353 37796.2867219-51704.8682295 999999.999999
*  2019 09 17 18 20 40.00000000                             
PL47 -3354.6636048  3252.8077860  4949.8274867 999999.999999
VL47-41136.2646954 37450.5954236-52334.0310631 999999.999999
*  2019 09 17 18 20 50.00000000                             
PL47 -3395.5611967  3290.0832810  4897.1816202 999999.999999
VL47-40658.1463003 37099.4962917-52956.5955106 999999.999999
*  2019 09 17 18 21 00.00000000                             
PL47 -3435.9783635  3327.0049882  4843.9165216 999999.999999
VL47-40175.4262195 36743.0260406-53572.4821969 999999.999999
*  2019 09 17 18 21 10.00000000                             
PL47 -3475.9105380  3363.5675554  4790.0389079 999999.999999
VL47-39688.1727570 36381.2226424-54181.6125801 999999.999999
*  2019 09 17 18 21 20.00000000                             
PL47 -3515.3532207  3399.7656689  4735.5555744 999999.999999
VL47-39196.4543067 36014.1253544-54783.9089797 999999.999999
*  2019 09 17 18 21 30.00000000                             
PL47 -3554.3019816  3435.5940544  4680.4733936 999999.999999
VL47-38700.3407876 35641.7732048-55379.2946013 999999.999999
*  2019 09 17 18 21 40.00000000                             
PL47 -3592.7524605  3471.0474772  4624.7993141 999999.999999
VL47-38199.9018817 35264.2067744-55967.6935552 999999.999999
*  2019 09 17 18 21 50.00000000                             
PL47 -3630.7003670  3506.1207436  4568.5403604 999999.999999
VL47-37695.2079968 34881.4671540-56549.0308624 999999.999999
*  2019 09 17 18 22 00.00000000                             
PL47 -3668.1414818  3540.8087009  4511.7036310 999999.999999
VL47-37186.3302289 34493.5959425-57123.2324427 999999.999999
*  2019 09 17 18 22 10.00000000                             
PL47 -3705.0716564  3575.1062393  4454.2962985 999999.999999
VL47-36673.3393369 34100.6362918-57690.2250935 999999.999999
*  2019 09 17 18 22 20.00000000                             
PL47 -3741.4868136  3609.0082917  4396.3256079 999999.999999
VL47-36156.3075503 33702.6310446-58249.9364739 999999.999999
*  2019 09 17 18 22 30.00000000                             
PL47 -3777.3829486  3642.5098342  4337.7988764 999999.999999
VL47-35635.3070645 33299.6243173-58802.2951074 999999.999999
*  2019 09 17 18 22 40.00000000                             
PL47 -3812.7561288  3675.6058883  4278.7234922 999999.999999
VL47-35110.4100340 32891.6615206-59347.2304016 999999.999999
*  2019 09 17 18 22 50.00000000                             
PL47 -3847.6024944  3708.2915203  4219.1069133 999999.999999
VL47-34581.6900697 32478.7878020-59884.6726720 999999.999999
*  2019 09 17 18 23 00.00000000                             
PL47 -3881.9182592  3740.5618424  4158.9566674 999999.999999
VL47-34049.2207370 32061.0495876-60414.5531575 999999.999999
*  2019 09 17 18 23 10.00000000                             
PL47 -3915.6997105  3772.4120139  4098.2803502 999999.999999
VL47-33513.0755300 31638.4945979-60936.8040282 999999.999999
*  2019 09 17 18 23 20.00000000                             
PL47 -3948.9432099  3803.8372418  4037.0856249 999999.999999
VL47-32973.3294193 31211.1702464-61451.3583928 999999.999999
*  2019 09 17 18 23 30.00000000                             
PL47 -3981.6451940  3834.8327808  3975.3802209 999999.999999
VL47-32430.0573291 30779.1252299-61958.1503175 999999.999999
*  2019 09 17 18 23 40.00000000                             
PL47 -4013.8021742  3865.3939353  3913.1719334 999999.999999
VL47-31883.3341127 30342.4095511-62457.1148613 999999.999999
*  2019 09 17 18 23 50.00000000                             
PL47 -4045.4107374  3895.5160595  3850.4686216 999999.999999
VL47-31333.2361960 29901.0727796-62948.1881185 999999.999999
*  2019 09 17 18 24 00.00000000                             
PL47 -4076.4675470  3925.1945576  3787.2782085 999999.999999
VL47-30779.8395653 29455.1660764-63431.3072553 999999.999999
*  2019 09 17 18 24 10.00000000                             
PL47 -4106.9693425  3954.4248855  3723.6086791 999999.999999
VL47-30223.2208416 29004.7409975-63906.4105250 999999.999999
*  2019 09 17 18 24 20.00000000                             
PL47 -4136.9129404  3983.2025507  3659.4680797 999999.999999
VL47-29663.4572193 28549.8494873-64373.4372591 999999.999999
*  2019 09 17 18 24 30.00000000                             
PL47 -4166.2952341  4011.5231135  3594.8645166 999999.999999
VL47-29100.6252863 28090.5450624-64832.3278400 999999.999999
*  2019 09 17 18 24 40.00000000                             
PL47 -4195.1131942  4039.3821875  3529.8061556 999999.999999
VL47-28534.8030465 27626.8807067-65283.0236697 999999.999999
*  2019 09 17 18 24 50.00000000                             
PL47 -4223.3638694  4066.7754397  3464.3012201 999999.999999
VL47-27966.0682231 27158.9106570-65725.4671522 999999.999999
*  2019 09 17 18 25 00.00000000                             
PL47 -4251.0443856  4093.6985921  3398.3579909 999999.999999
VL47-27394.4982700 26686.6904200-66159.6016954 999999.999999
*  2019 09 17 18 25 10.00000000                             
PL47 -4278.1519471  4120.1474222  3331.9848049 999999.999999
VL47-26820.1720605 26210.2750352-66585.3717330 999999.999999
*  2019 09 17 18 25 20.00000000                             
PL47 -4304.6838372  4146.1177626  3265.1900538 999999.999999
VL47-26243.1682169 25729.7207997-67002.7227515 999999.999999
*  2019 09 17 18 25 30.00000000                             
PL47 -4330.6374171  4171.6055033  3197.9821835 999999.999999
VL47-25663.5650705 25245.0852844-67411.6013126 999999.999999
*  2019 09 17 18 25 40.00000000                             
PL47 -4356.0101275  4196.6065917  3130.3696928 999999.999999
VL47-25081.4424352 24756.4254637-67811.9550663 999999.999999
*  2019 09 17 18 25 50.00000000                             
PL47 -4380.7994886  4221.1170323  3062.3611321 999999.999999
VL47-24496.8794630 24263.7999188-68203.7327595 999999.999999
*  2019 09 17 18 26 00.00000000                             
PL47 -4405.0030995  4245.1328893  2993.9651027 999999.999999
VL47-23909.9558509 23767.2675648-68586.8842459 999999.999999
*  2019 09 17 18 26 10.00000000                             
PL47 -4428.6186401  4268.6502849  2925.1902554 999999.999999
VL47-23320.7518236 23266.8876461-68961.3604964 999999.999999
*  2019 09 17 18 26 20.00000000                             
PL47 -4451.6438695  4291.6654023  2856.0452894 999999.999999
VL47-22729.3468906 22762.7210009-69327.1136072 999999.999999
*  2019 09 17 18 26 30.00000000                             
PL47 -4474.0766272  4314.1744847  2786.5389515 999999.999999
VL47-22135.8220111 22254.8277904-69684.0968064 999999.999999
*  2019 09 17 18 26 40.00000000                             
PL47 -4495.9148338  4336.1738361  2716.6800344 999999.999999
VL47-21540.2577461 21743.2693937-70032.2644579 999999.999999
*  2019 09 17 18 26 50.00000000                             
PL47 -4517.1564897  4357.6598227  2646.4773759 999999.999999
VL47-20942.7342429 21228.1084051-70371.5720659 999999.999999
*  2019 09 17 18 27 00.00000000                             
PL47 -4537.7996763  4378.6288727  2575.9398580 999999.999999
VL47-20343.3330097 20709.4067773-70701.9762804 999999.999999
*  2019 09 17 18 27 10.00000000                             
PL47 -4557.8425568  4399.0774770  2505.0764052 999999.999999
VL47-19742.1351258 20187.2276609-71023.4349049 999999.999999
EOF                                                         
